$$SOE
2459580.500000000, A.D. 2022-Jan-01 00:00:00.0000, 3.468828204439418E+08, 2.327929129377856E+08, 1.052289102783988E+07,
2459587.500000000, A.D. 2022-Jan-08 00:00:00.0000, 3.414385562700205E+08, 2.410991458767816E+08, 1.036518514516740E+07,
2459594.500000000, A.D. 2022-Jan-15 00:00:00.0000, 3.357675262034394E+08, 2.492451713176314E+08, 1.020059190708730E+07,
2459601.500000000, A.D. 2022-Jan-22 00:00:00.0000, 3.298737882530246E+08, 2.572257934941479E+08, 1.002922913617878E+07,
2459608.500000000, A.D. 2022-Jan-29 00:00:00.0000, 3.237614724209993E+08, 2.650358908239492E+08, 9.851216941139624E+06,
2459615.500000000, A.D. 2022-Feb-05 00:00:00.0000, 3.174347790593153E+08, 2.726704136320691E+08, 9.666677880790681E+06,
2459622.500000000, A.D. 2022-Feb-12 00:00:00.0000, 3.108979795599521E+08, 2.801243809262767E+08, 9.475736847992435E+06,
2459629.500000000, A.D. 2022-Feb-19 00:00:00.0000, 3.041554180488012E+08, 2.873928785949590E+08, 9.278520988018647E+06,
2459636.500000000, A.D. 2022-Feb-26 00:00:00.0000, 2.972115127660262E+08, 2.944710583084800E+08, 9.075159712291181E+06,
2459643.500000000, A.D. 2022-Mar-05 00:00:00.0000, 2.900707572879874E+08, 3.013541365118949E+08, 8.865784742163718E+06,
2459650.500000000, A.D. 2022-Mar-12 00:00:00.0000, 2.827377218089103E+08, 3.080373934480872E+08, 8.650530156675205E+06,
2459657.500000000, A.D. 2022-Mar-19 00:00:00.0000, 2.752170545498404E+08, 3.145161722442602E+08, 8.429532439653918E+06,
2459664.500000000, A.D. 2022-Mar-26 00:00:00.0000, 2.675134833138128E+08, 3.207858780609862E+08, 8.202930523260370E+06,
2459671.500000000, A.D. 2022-Apr-02 00:00:00.0000, 2.596318172516377E+08, 3.268419772535777E+08, 7.970865816861376E+06,
2459678.500000000, A.D. 2022-Apr-09 00:00:00.0000, 2.515769491073396E+08, 3.326799965569867E+08, 7.733482196415126E+06,
2459685.500000000, A.D. 2022-Apr-16 00:00:00.0000, 2.433538582984292E+08, 3.382955229549194E+08, 7.490925974726424E+06,
2459692.500000000, A.D. 2022-Apr-23 00:00:00.0000, 2.349676135594662E+08, 3.436842053214815E+08, 7.243346057048887E+06,
2459699.500000000, A.D. 2022-Apr-30 00:00:00.0000, 2.264233732720079E+08, 3.488417555946033E+08, 6.990894270036697E+06,
2459706.500000000, A.D. 2022-May-07 00:00:00.0000, 2.177263865400617E+08, 3.537639475187786E+08, 6.733725422140598E+06,
2459713.500000000, A.D. 2022-May-14 00:00:00.0000, 2.088819964004763E+08, 3.584466160040370E+08, 6.471997215941474E+06,
2459720.500000000, A.D. 2022-May-21 00:00:00.0000, 1.998956431334920E+08, 3.628856578654855E+08, 6.205870260403514E+06,
2459727.500000000, A.D. 2022-May-28 00:00:00.0000, 1.907728671897529E+08, 3.670770329923238E+08, 5.935508148578361E+06,
2459734.500000000, A.D. 2022-Jun-04 00:00:00.0000, 1.815193120065660E+08, 3.710167656426150E+08, 5.661077549758017E+06,
2459741.500000000, A.D. 2022-Jun-11 00:00:00.0000, 1.721407268537370E+08, 3.747009458756626E+08, 5.382748302937150E+06,
2459748.500000000, A.D. 2022-Jun-18 00:00:00.0000, 1.626429697429464E+08, 3.781257311454905E+08, 5.100693509077162E+06,
2459755.500000000, A.D. 2022-Jun-25 00:00:00.0000, 1.530320104248584E+08, 3.812873480331555E+08, 4.815089616737455E+06,
2459762.500000000, A.D. 2022-Jul-02 00:00:00.0000, 1.433139336022042E+08, 3.841820940639987E+08, 4.526116483411610E+06,
2459769.500000000, A.D. 2022-Jul-09 00:00:00.0000, 1.334949427430725E+08, 3.868063398001512E+08, 4.233957391242623E+06,
2459776.500000000, A.D. 2022-Jul-16 00:00:00.0000, 1.235813644342570E+08, 3.891565323055612E+08, 3.938799110473633E+06,
2459783.500000000, A.D. 2022-Jul-23 00:00:00.0000, 1.135796510716059E+08, 3.912292000720712E+08, 3.640832218205810E+06,
2459790.500000000, A.D. 2022-Jul-30 00:00:00.0000, 1.034963819616148E+08, 3.930209560609543E+08, 3.340251390730351E+06,
2459797.500000000, A.D. 2022-Aug-06 00:00:00.0000, 9.333826642282888E+07, 3.945284995228879E+08, 3.037255392367214E+06,
2459804.500000000, A.D. 2022-Aug-13 00:00:00.0000, 8.311214805540583E+07, 3.957486193635733E+08, 2.732047060951084E+06,
2459811.500000000, A.D. 2022-Aug-20 00:00:00.0000, 7.282500859557222E+07, 3.966781985619707E+08, 2.424833392753869E+06,
2459818.500000000, A.D. 2022-Aug-27 00:00:00.0000, 6.248397140633029E+07, 3.973142189300096E+08, 2.115825661529839E+06,
2459825.500000000, A.D. 2022-Sep-03 00:00:00.0000, 5.209630483654805E+07, 3.976537661229956E+08, 1.805239540037930E+06,
2459832.500000000, A.D. 2022-Sep-10 00:00:00.0000, 4.166942552399027E+07, 3.976940349451991E+08, 1.493295217489958E+06,
2459839.500000000, A.D. 2022-Sep-17 00:00:00.0000, 3.121090165674218E+07, 3.974323349679793E+08, 1.180217509510696E+06,
2459846.500000000, A.D. 2022-Sep-24 00:00:00.0000, 2.072845623630432E+07, 3.968660964269092E+08, 8.662359501536191E+05,
2459853.500000000, A.D. 2022-Oct-01 00:00:00.0000, 1.022997056205395E+07, 3.959928763921847E+08, 5.515848413145244E+05,
2459860.500000000, A.D. 2022-Oct-08 00:00:00.0000, -2.765116791367065E+05, 3.948103657518597E+08, 2.365032639455199E+05,
2459867.500000000, A.D. 2022-Oct-15 00:00:00.0000, -1.078278067498419E+07, 3.933163982264759E+08, -7.876476667657495E+04,
2459874.500000000, A.D. 2022-Oct-22 00:00:00.0000, -2.128045930844811E+07, 3.915089597469019E+08, -3.939699404551387E+05,
2459881.500000000, A.D. 2022-Oct-29 00:00:00.0000, -3.176100207163316E+07, 3.893861956136308E+08, -7.088575284367502E+05,
2459888.500000000, A.D. 2022-Nov-05 00:00:00.0000, -4.221569201076131E+07, 3.869464181991676E+08, -1.023167464853764E+06,
2459895.500000000, A.D. 2022-Nov-12 00:00:00.0000, -5.263563770170972E+07, 3.841881164810749E+08, -1.336634353210747E+06,
2459902.500000000, A.D. 2022-Nov-19 00:00:00.0000, -6.301177101389314E+07, 3.811099664660850E+08, -1.648987409817129E+06,
2459909.500000000, A.D. 2022-Nov-26 00:00:00.0000, -7.333484544378766E+07, 3.777108421217902E+08, -1.959950402599037E+06,
2459916.500000000, A.D. 2022-Dec-03 00:00:00.0000, -8.359543489923780E+07, 3.739898268180095E+08, -2.269241602799743E+06,
2459923.500000000, A.D. 2022-Dec-10 00:00:00.0000, -9.378393293970251E+07, 3.699462253088470E+08, -2.576573753764674E+06,
2459930.500000000, A.D. 2022-Dec-17 00:00:00.0000, -1.038905525020437E+08, 3.655795762407747E+08, -2.881654062765419E+06,
2459937.500000000, A.D. 2022-Dec-24 00:00:00.0000, -1.139053260604837E+08, 3.608896651285378E+08, -3.184184233001158E+06,
2459944.500000000, A.D. 2022-Dec-31 00:00:00.0000, -1.238181059250090E+08, 3.558765379105562E+08, -3.483860561592698E+06,
2459951.500000000, A.D. 2023-Jan-07 00:00:00.0000, -1.336185646220807E+08, 3.505405160469109E+08, -3.780374038132012E+06,
2459958.500000000, A.D. 2023-Jan-14 00:00:00.0000, -1.432961973950143E+08, 3.448822136549233E+08, -4.073410225183398E+06,
2459965.500000000, A.D. 2023-Jan-21 00:00:00.0000, -1.528403275391935E+08, 3.389025534988179E+08, -4.362649123185471E+06,
2459972.500000000, A.D. 2023-Jan-28 00:00:00.0000, -1.622401109828411E+08, 3.326027816136076E+08, -4.647765373540476E+06,
2459979.500000000, A.D. 2023-Feb-04 00:00:00.0000, -1.714845404129789E+08, 3.259844835690996E+08, -4.928428535635754E+06,
2459986.500000000, A.D. 2023-Feb-11 00:00:00.0000, -1.805624508330895E+08, 3.190496021571412E+08, -5.204303292056218E+06,
2459993.500000000, A.D. 2023-Feb-18 00:00:00.0000, -1.894625267086491E+08, 3.118004556446283E+08, -5.475049646160975E+06,
2460000.500000000, A.D. 2023-Feb-25 00:00:00.0000, -1.981733105347080E+08, 3.042397563874989E+08, -5.740323152032241E+06,
2460007.500000000, A.D. 2023-Mar-04 00:00:00.0000, -2.066832128226644E+08, 2.963706297725592E+08, -5.999775187500685E+06,
2460014.500000000, A.D. 2023-Mar-11 00:00:00.0000, -2.149805235785025E+08, 2.881966334244901E+08, -6.253053275794342E+06,
2460021.500000000, A.D. 2023-Mar-18 00:00:00.0000, -2.230534253276660E+08, 2.797217765527228E+08, -6.499801467172146E+06,
2460028.500000000, A.D. 2023-Mar-25 00:00:00.0000, -2.308900075863764E+08, 2.709505393016310E+08, -6.739660806069270E+06,
2460035.500000000, A.D. 2023-Apr-01 00:00:00.0000, -2.384782824580359E+08, 2.618878923939648E+08, -6.972269893600538E+06,
2460042.500000000, A.D. 2023-Apr-08 00:00:00.0000, -2.458062020728623E+08, 2.525393181752035E+08, -7.197265392141029E+06,
2460049.500000000, A.D. 2023-Apr-15 00:00:00.0000, -2.528616803073698E+08, 2.429108318238153E+08, -7.414282351813361E+06,
2460056.500000000, A.D. 2023-Apr-22 00:00:00.0000, -2.596326170593803E+08, 2.330089995292914E+08, -7.622954777230158E+06,
2460063.500000000, A.D. 2023-Apr-29 00:00:00.0000, -2.661069224153565E+08, 2.228409557139931E+08, -7.822916501998410E+06,
2460070.500000000, A.D. 2023-May-06 00:00:00.0000, -2.722725425443717E+08, 2.124144208833810E+08, -8.013802065028578E+06,
2460077.500000000, A.D. 2023-May-13 00:00:00.0000, -2.781174883632851E+08, 2.017377190032814E+08, -8.195247573895417E+06,
2460084.500000000, A.D. 2023-May-20 00:00:00.0000, -2.836298667933968E+08, 1.908197936895954E+08, -8.366891618578427E+06,
2460091.500000000, A.D. 2023-May-27 00:00:00.0000, -2.887979144532597E+08, 1.796702229441155E+08, -8.528376257707357E+06,
2460098.500000000, A.D. 2023-Jun-03 00:00:00.0000, -2.936100337446613E+08, 1.682992322118281E+08, -8.679348082191028E+06,
2460105.500000000, A.D. 2023-Jun-10 00:00:00.0000, -2.980548312943629E+08, 1.567177054785328E+08, -8.819459360190779E+06,
2460112.500000000, A.D. 2023-Jun-17 00:00:00.0000, -3.021211586192517E+08, 1.449371940642567E+08, -8.948369275836989E+06,
2460119.500000000, A.D. 2023-Jun-24 00:00:00.0000, -3.057981546203371E+08, 1.329699228694960E+08, -9.065745284549057E+06,
2460126.500000000, A.D. 2023-Jul-01 00:00:00.0000, -3.090752895439516E+08, 1.208287945932904E+08, -9.171264537366085E+06,
2460133.500000000, A.D. 2023-Jul-08 00:00:00.0000, -3.119424119405671E+08, 1.085273924296392E+08, -9.264615149516512E+06,
2460140.500000000, A.D. 2023-Jul-15 00:00:00.0000, -3.143897997192856E+08, 9.607997809818238E+07, -9.345497422878537E+06,
2460147.500000000, A.D. 2023-Jul-22 00:00:00.0000, -3.164082115513072E+08, 8.350148386888647E+07, -9.413625423640244E+06,
$$EOE